#aV2009  5  8  0  0   .00000000      96 DD+AD WGS84 FIT  NGA
## 1530 432000.00000000   900.00000000 54959  .0000000000000
+   31     2  3  4  5  6  7  8  9 10 11 12 13 14 15 16 17 18
+         19 20 21 22 23 24 25 26 27 28 29 30 31 32  0  0  0
+          0  0  0  0  0  0  0  0  0  0  0  0  0  0  0  0  0
+          0  0  0  0  0  0  0  0  0  0  0  0  0  0  0  0  0
+          0  0  0  0  0  0  0  0  0  0  0  0  0  0  0  0  0
++         0  0  0  0  0  0  0  0  0  0  0  0  0  0  0  0  0
++         0  0  0  0  0  0  0  0  0  0  0  0  0  0  0  0  0
++         0  0  0  0  0  0  0  0  0  0  0  0  0  0  0  0  0
++         0  0  0  0  0  0  0  0  0  0  0  0  0  0  0  0  0
++         0  0  0  0  0  0  0  0  0  0  0  0  0  0  0  0  0
%c cc cc ccc ccc cccc cccc cccc cccc ccccc ccccc ccccc ccccc
%c cc cc ccc ccc cccc cccc cccc cccc ccccc ccccc ccccc ccccc
%f  0.0000000  0.000000000  0.00000000000  0.000000000000000
%f  0.0000000  0.000000000  0.00000000000  0.000000000000000
%i    0    0    0    0      0      0      0      0         0
%i    0    0    0    0      0      0      0      0         0
/*      NGA, ST. LOUIS,MO.                                  
/*   EPHEMERIS COMPUTED FROM  3 DAYS OF DATA                
/* CCCCCCCCCCCCCCCCCCCCCCCCCCCCCCCCCCCCCCCCCCCCCCCCCCCCCCCCC
/* CCCCCCCCCCCCCCCCCCCCCCCCCCCCCCCCCCCCCCCCCCCCCCCCCCCCCCCCC
*  2009  5  8 19 45   .00000000                                                 
P  2  12613.220333  23341.135776   3572.187205    153.955939                    
V  2  -5090.747441  -2130.656678  30633.209795       .004315                    
P  3 -15411.546223 -11621.580526 -18695.219936    390.338029                    
V  3  22501.328589  -5533.910878 -15005.011381       .052610                    
P  4   2116.615657  22148.366344  14097.012026    -83.063419                    
V  4 -12377.688349 -13808.142817  23699.687188      -.152998                    
P  5  16738.190889  -3169.074061  20043.864915    -68.478030                    
V  5  -8314.379717  24891.480597  10838.145939      -.185188                    
P  6  -9863.141936 -13975.259131 -20138.049032    114.560576                    
V  6  25834.765518  -3841.606198  -9837.806880       .157625                    
P  7 -14069.560105   5895.519844 -21771.051294     19.187232                    
V  7 -14927.454773 -23172.512999   3260.494484      -.006186                    
P  8  -4856.436959  17274.087138 -19450.490829   -202.130622                    
V  8 -13290.764458 -20842.368939 -15715.184809      -.017913                    
P  9  19326.059094  11644.050843  13436.609714     54.843304                    
V  9   8829.706076  15916.683518 -25185.277062       .019395                    
P 10   6594.539445  16788.036627 -19544.967631    -15.697920                    
V 10 -12831.890082  21019.366831  14172.363724      -.006397                    
P 11 -22145.148833  -7157.199394  12898.030459     -1.819757                    
V 11  -9338.981263 -14429.242913 -23311.268788      -.014176                    
P 12  16478.346010   -608.444989  20867.561145   -283.878895                    
V 12 -11209.904005  23853.382051   9698.217427       .051615                    
P 13 -24032.065026   6211.673251  -9578.549936    296.586827                    
V 13 -11934.438232  -1540.290863  29345.158807       .009580                    
P 14   9263.575613 -13858.096945  20765.133396   -113.734022                    
V 14  26067.275259    232.300040 -11648.719590       .059068                    
P 15  21580.771977   7906.137838 -13342.375053   -289.611749                    
V 15 -16759.603392   3498.939002 -24932.613171      -.038850                    
P 16  -2374.977701 -20237.296618 -16841.456345     52.765875                    
V 16  11723.749043 -18213.602482  20390.479021      -.032917                    
P 17 -10816.044421  14223.112866  19657.684807     58.026219                    
V 17 -24910.939272   -320.451612 -13707.634988       .017762                    
P 18  16664.927668 -18761.722921  -7878.952229    -58.654420                    
V 18  -1882.172718  10844.367139 -29362.585604       .033137                    
P 19 -22855.335177  -8140.331245 -11028.642198     26.246644                    
V 19  14059.415141  -2134.944319 -27152.363490      -.010557                    
P 20 -17345.231753   3120.706002  19729.626506     83.183440                    
V 20   9641.646548 -23551.355952  12163.105715      -.010419                    
P 21  12502.756693  -9467.433313 -21154.586525     15.062430                    
V 21  15122.875340  23088.923158  -2005.955919      -.020661                    
P 22  11152.208657 -23958.380173   2397.996768    200.050526                    
V 22   4452.021423   -837.245879 -31141.910456      -.006865                    
P 23 -26619.952747   -133.773205   2183.654850    389.911859                    
V 23   2689.905460  -2415.037240  31620.183157       .001705                    
P 24  18094.768902   4535.950293 -18674.371958    187.333938                    
V 24  10700.375851  21673.670399  15778.305868       .029644                    
P 25 -17670.495937   -792.563803 -19404.546304    401.925145                    
V 25 -14857.096950 -20678.675583  14314.967596       .199754                    
P 26  26008.731002   3867.334618  -6003.504233     60.161086                    
V 26  -6770.658951   1228.087187 -30919.271987       .014172                    
P 27  19131.249412  17017.158720   7696.590396     47.414555                    
V 27   3566.624923   8388.223787 -30077.731393       .031703                    
P 28 -12337.981755  23322.376551    376.166871    -24.636962                    
V 28  -2553.611956  -1423.243440 -32082.354981      -.003211                    
P 29  24764.671488  -5944.142754  -7359.049039     18.059736                    
V 29   9582.614454   2442.016285  29875.663503       .038561                    
P 30  17466.755794 -12803.409693  14953.217809    144.851882                    
V 30  -5915.159609  18937.162246  22658.994440       .027587                    
P 31  -4308.958141 -22750.714853  13089.800656    -59.745371                    
V 31  10643.739770  12526.516928  25820.165701      -.008863                    
P 32 -13645.758428  -7033.750418  22062.408403    264.216677                    
V 32  13994.989391 -23170.508854   1539.514813      -.051552                    
EOF
